STARLINK-31768          
1 59616U 24080R   26068.31126227 -.00000274  00000+0 -41970-6 0  9998
2 59616  43.0050  40.1412 0001115 276.1558  83.9167 15.27578545104474
FLOCK 4G-5              
1 62663U 25009BG  26068.45638436  .00011278  00000+0  40688-3 0  9997
2 62663  97.4058 151.2478 0002094 314.5072  45.5996 15.28679529 63699
